CZ-2C R/B               
1 54039U 22132E   26051.96124692  .00036644  00000+0  44436-3 0  9990
2 54039  97.2963  54.7917 0020122 145.5640 214.6926 15.60296757187761
GSLV R/B                
1 54149U 22138AN  26051.80553861  .00003638  00000+0  31550-3 0  9995
2 54149  87.3881 172.0117 0020543 207.4603 152.5545 14.96637332181400
XRISM                   
1 57800U 23137A   26052.13007982  .00005272  00000+0  29985-3 0  9992
2 57800  31.0033  30.7498 0008313 234.1185 125.8682 15.11278718135284
ACS3                    
1 59588U 24077B   26051.86013840  .00019033  00000+0  15585-1 0  9999
2 59588  97.2164 356.7569 0049310 125.2712 235.3079 13.88853427 91866
SZ-21 MODULE            
1 66515U 25246C   26051.04654385  .00031392  00000+0  28694-3 0  9990
2 66515  41.4757 311.8512 0001754 295.1642  64.9017 15.67142085 15305
